{
  "type": "FeatureCollection",
  "properties": {
    "source": "synthetic_floor_plan.pdf",
    "coordinate_units": "mm",
    "origin": "bottom-left",
    "mm_per_pdf_point": 10.0
  },
  "features": [
    {
      "type": "Feature",
      "properties": {
        "primitive_id": 1,
        "page": 1,
        "type": "line",
        "point_count": 2,
        "x1_pt": 48.0,
        "y1_pt": 621.8898,
        "x2_pt": 270.0,
        "y2_pt": 621.8898,
        "length_pt": 222.0,
        "length_mm": 2220.0,
        "stroke_width_pt": 1.1,
        "classification": "wall_candidate"
      },
      "geometry": {
        "type": "LineString",
        "coordinates": [
          [
            480.0,
            2200.0
          ],
          [
            2700.0,
            2200.0
          ]
        ]
      }
    },
    {
      "type": "Feature",
      "properties": {
        "primitive_id": 2,
        "page": 1,
        "type": "line",
        "point_count": 2,
        "x1_pt": 310.0,
        "y1_pt": 621.8898,
        "x2_pt": 548.0,
        "y2_pt": 621.8898,
        "length_pt": 238.0,
        "length_mm": 2380.0,
        "stroke_width_pt": 1.1,
        "classification": "wall_candidate"
      },
      "geometry": {
        "type": "LineString",
        "coordinates": [
          [
            3100.0,
            2200.0
          ],
          [
            5480.0,
            2200.0
          ]
        ]
      }
    },
    {
      "type": "Feature",
      "properties": {
        "primitive_id": 3,
        "page": 1,
        "type": "line",
        "point_count": 2,
        "x1_pt": 48.0,
        "y1_pt": 221.8898,
        "x2_pt": 548.0,
        "y2_pt": 221.8898,
        "length_pt": 500.0,
        "length_mm": 5000.0,
        "stroke_width_pt": 1.1,
        "classification": "wall_candidate"
      },
      "geometry": {
        "type": "LineString",
        "coordinates": [
          [
            480.0,
            6200.0
          ],
          [
            5480.0,
            6200.0
          ]
        ]
      }
    },
    {
      "type": "Feature",
      "properties": {
        "primitive_id": 4,
        "page": 1,
        "type": "line",
        "point_count": 2,
        "x1_pt": 48.0,
        "y1_pt": 621.8898,
        "x2_pt": 48.0,
        "y2_pt": 221.8898,
        "length_pt": 400.0,
        "length_mm": 4000.0,
        "stroke_width_pt": 1.1,
        "classification": "wall_candidate"
      },
      "geometry": {
        "type": "LineString",
        "coordinates": [
          [
            480.0,
            2200.0
          ],
          [
            480.0,
            6200.0
          ]
        ]
      }
    },
    {
      "type": "Feature",
      "properties": {
        "primitive_id": 5,
        "page": 1,
        "type": "line",
        "point_count": 2,
        "x1_pt": 548.0,
        "y1_pt": 621.8898,
        "x2_pt": 548.0,
        "y2_pt": 221.8898,
        "length_pt": 400.0,
        "length_mm": 4000.0,
        "stroke_width_pt": 1.1,
        "classification": "wall_candidate"
      },
      "geometry": {
        "type": "LineString",
        "coordinates": [
          [
            5480.0,
            2200.0
          ],
          [
            5480.0,
            6200.0
          ]
        ]
      }
    },
    {
      "type": "Feature",
      "properties": {
        "primitive_id": 6,
        "page": 1,
        "type": "line",
        "point_count": 2,
        "x1_pt": 310.0,
        "y1_pt": 621.8898,
        "x2_pt": 310.0,
        "y2_pt": 451.8898,
        "length_pt": 170.0,
        "length_mm": 1700.0,
        "stroke_width_pt": 1.1,
        "classification": "wall_candidate"
      },
      "geometry": {
        "type": "LineString",
        "coordinates": [
          [
            3100.0,
            2200.0
          ],
          [
            3100.0,
            3900.0
          ]
        ]
      }
    },
    {
      "type": "Feature",
      "properties": {
        "primitive_id": 7,
        "page": 1,
        "type": "line",
        "point_count": 2,
        "x1_pt": 310.0,
        "y1_pt": 401.8898,
        "x2_pt": 310.0,
        "y2_pt": 221.8898,
        "length_pt": 180.0,
        "length_mm": 1800.0,
        "stroke_width_pt": 1.1,
        "classification": "wall_candidate"
      },
      "geometry": {
        "type": "LineString",
        "coordinates": [
          [
            3100.0,
            4400.0
          ],
          [
            3100.0,
            6200.0
          ]
        ]
      }
    },
    {
      "type": "Feature",
      "properties": {
        "primitive_id": 8,
        "page": 1,
        "type": "line",
        "point_count": 2,
        "x1_pt": 180.0,
        "y1_pt": 225.8898,
        "x2_pt": 250.0,
        "y2_pt": 225.8898,
        "length_pt": 70.0,
        "length_mm": 700.0,
        "stroke_width_pt": 0.6,
        "classification": "detail_candidate"
      },
      "geometry": {
        "type": "LineString",
        "coordinates": [
          [
            1800.0,
            6160.0
          ],
          [
            2500.0,
            6160.0
          ]
        ]
      }
    },
    {
      "type": "Feature",
      "properties": {
        "primitive_id": 9,
        "page": 1,
        "type": "line",
        "point_count": 2,
        "x1_pt": 180.0,
        "y1_pt": 217.8898,
        "x2_pt": 250.0,
        "y2_pt": 217.8898,
        "length_pt": 70.0,
        "length_mm": 700.0,
        "stroke_width_pt": 0.6,
        "classification": "detail_candidate"
      },
      "geometry": {
        "type": "LineString",
        "coordinates": [
          [
            1800.0,
            6240.0
          ],
          [
            2500.0,
            6240.0
          ]
        ]
      }
    },
    {
      "type": "Feature",
      "properties": {
        "primitive_id": 10,
        "page": 1,
        "type": "cubic_bezier",
        "point_count": 17,
        "x1_pt": 270.0,
        "y1_pt": 621.8898,
        "x2_pt": 310.0,
        "y2_pt": 581.8898,
        "length_pt": 64.1195,
        "length_mm": 641.19,
        "stroke_width_pt": 0.6,
        "classification": "detail_candidate"
      },
      "geometry": {
        "type": "LineString",
        "coordinates": [
          [
            2700.0,
            2200.0
          ],
          [
            2701.746,
            2245.691
          ],
          [
            2706.934,
            2288.965
          ],
          [
            2715.491,
            2329.749
          ],
          [
            2727.344,
            2367.969
          ],
          [
            2742.419,
            2403.552
          ],
          [
            2760.645,
            2436.426
          ],
          [
            2781.946,
            2466.516
          ],
          [
            2806.25,
            2493.75
          ],
          [
            2833.484,
            2518.054
          ],
          [
            2863.574,
            2539.355
          ],
          [
            2896.448,
            2557.581
          ],
          [
            2932.031,
            2572.656
          ],
          [
            2970.251,
            2584.509
          ],
          [
            3011.035,
            2593.066
          ],
          [
            3054.309,
            2598.254
          ],
          [
            3100.0,
            2600.0
          ]
        ]
      }
    },
    {
      "type": "Feature",
      "properties": {
        "primitive_id": 11,
        "page": 1,
        "type": "line",
        "point_count": 2,
        "x1_pt": 48.0,
        "y1_pt": 681.8898,
        "x2_pt": 548.0,
        "y2_pt": 681.8898,
        "length_pt": 500.0,
        "length_mm": 5000.0,
        "stroke_width_pt": 0.8,
        "classification": "wall_candidate"
      },
      "geometry": {
        "type": "LineString",
        "coordinates": [
          [
            480.0,
            1600.0
          ],
          [
            5480.0,
            1600.0
          ]
        ]
      }
    },
    {
      "type": "Feature",
      "properties": {
        "primitive_id": 12,
        "page": 1,
        "type": "line",
        "point_count": 2,
        "x1_pt": 48.0,
        "y1_pt": 686.8898,
        "x2_pt": 48.0,
        "y2_pt": 676.8898,
        "length_pt": 10.0,
        "length_mm": 100.0,
        "stroke_width_pt": 0.8,
        "classification": "detail_candidate"
      },
      "geometry": {
        "type": "LineString",
        "coordinates": [
          [
            480.0,
            1550.0
          ],
          [
            480.0,
            1650.0
          ]
        ]
      }
    },
    {
      "type": "Feature",
      "properties": {
        "primitive_id": 13,
        "page": 1,
        "type": "line",
        "point_count": 2,
        "x1_pt": 548.0,
        "y1_pt": 686.8898,
        "x2_pt": 548.0,
        "y2_pt": 676.8898,
        "length_pt": 10.0,
        "length_mm": 100.0,
        "stroke_width_pt": 0.8,
        "classification": "detail_candidate"
      },
      "geometry": {
        "type": "LineString",
        "coordinates": [
          [
            5480.0,
            1550.0
          ],
          [
            5480.0,
            1650.0
          ]
        ]
      }
    }
  ]
}